[{"OBJECT_NAME":"OBJECT A","OBJECT_ID":"2025-055A","EPOCH":"2026-03-09T22:20:06.055296","MEAN_MOTION":15.1489582,"ECCENTRICITY":0.00171574,"INCLINATION":97.6376,"RA_OF_ASC_NODE":208.1396,"ARG_OF_PERICENTER":127.0611,"MEAN_ANOMALY":233.2193,"EPHEMERIS_TYPE":0,"CLASSIFICATION_TYPE":"U","NORAD_CAT_ID":63291,"ELEMENT_SET_NO":999,"REV_AT_EPOCH":5401,"BSTAR":0.00072348746,"MEAN_MOTION_DOT":0.00013464,"MEAN_MOTION_DDOT":0},{"OBJECT_NAME":"IRIDE FM5","OBJECT_ID":"2025-276AK","EPOCH":"2026-03-09T22:47:21.359328","MEAN_MOTION":15.1881147,"ECCENTRICITY":0.00041727,"INCLINATION":97.4263,"RA_OF_ASC_NODE":144.1872,"ARG_OF_PERICENTER":15.4541,"MEAN_ANOMALY":344.682,"EPHEMERIS_TYPE":0,"CLASSIFICATION_TYPE":"U","NORAD_CAT_ID":66699,"ELEMENT_SET_NO":999,"REV_AT_EPOCH":1535,"BSTAR":0.00040369446,"MEAN_MOTION_DOT":8.339e-5,"MEAN_MOTION_DDOT":0}]
